{"type": "FeatureCollection", "features": [{"type": "Feature", "properties": {"norad_id": 2807, "name": "OPS 7218 (TRANSIT 16)", "group": "nnss", "lat": -70.39626462216695, "lon": -6.908701599937575, "alt_km": 1093.2971412639909, "timestamp": "2025-12-12T22:42:12.814174+00:00", "meta": {"OBJECT_NAME": "OPS 7218 (TRANSIT 16)", "OBJECT_ID": "1967-048A", "EPOCH": "2025-12-12T07:06:24.458688", "MEAN_MOTION": 13.50722028, "ECCENTRICITY": 0.00219409, "INCLINATION": 89.6732, "RA_OF_ASC_NODE": 354.0309, "ARG_OF_PERICENTER": 115.2417, "MEAN_ANOMALY": 256.2314, "EPHEMERIS_TYPE": 0, "CLASSIFICATION_TYPE": "U", "NORAD_CAT_ID": 2807, "ELEMENT_SET_NO": 999, "REV_AT_EPOCH": 88270, "BSTAR": 0.00019830933, "MEAN_MOTION_DOT": 1.38e-06, "MEAN_MOTION_DDOT": 0}, "tle": {"line1": "1 02807U 67048A   25346.29611642  .00000138  00000+0  19831-3 0  9999", "line2": "2 02807  89.6732 354.0309 0021940 115.2417 256.2314 13.50722028882703"}}, "geometry": {"type": "Point", "coordinates": [-6.908701599937575, -70.39626462216695]}}, {"type": "Feature", "properties": {"norad_id": 2965, "name": "OPS 4947 (TRANSIT 17)", "group": "nnss", "lat": -3.5279089432913975, "lon": 24.373795775141428, "alt_km": 1081.3845898168847, "timestamp": "2025-12-12T22:42:12.814196+00:00", "meta": {"OBJECT_NAME": "OPS 4947 (TRANSIT 17)", "OBJECT_ID": "1967-092A", "EPOCH": "2025-12-12T03:31:23.931264", "MEAN_MOTION": 13.53453258, "ECCENTRICITY": 0.00461452, "INCLINATION": 89.2496, "RA_OF_ASC_NODE": 24.4809, "ARG_OF_PERICENTER": 236.2761, "MEAN_ANOMALY": 188.2519, "EPHEMERIS_TYPE": 0, "CLASSIFICATION_TYPE": "U", "NORAD_CAT_ID": 2965, "ELEMENT_SET_NO": 999, "REV_AT_EPOCH": 87089, "BSTAR": 0.00024464432, "MEAN_MOTION_DOT": 1.76e-06, "MEAN_MOTION_DDOT": 0}, "tle": {"line1": "1 02965U 67092A   25346.14680476  .00000176  00000+0  24464-3 0  9998", "line2": "2 02965  89.2496  24.4809 0046145 236.2761 188.2519 13.53453258870891"}}, "geometry": {"type": "Point", "coordinates": [24.373795775141428, -3.5279089432913975]}}, {"type": "Feature", "properties": {"norad_id": 3133, "name": "OPS 7034 (TRANSIT 18)", "group": "nnss", "lat": 36.34093184862993, "lon": 93.65993342065698, "alt_km": 1014.0951582772859, "timestamp": "2025-12-12T22:42:12.814211+00:00", "meta": {"OBJECT_NAME": "OPS 7034 (TRANSIT 18)", "OBJECT_ID": "1968-012A", "EPOCH": "2025-12-12T06:34:09.567840", "MEAN_MOTION": 13.51565481, "ECCENTRICITY": 0.00737983, "INCLINATION": 90.0279, "RA_OF_ASC_NODE": 273.6375, "ARG_OF_PERICENTER": 170.4689, "MEAN_ANOMALY": 304.4346, "EPHEMERIS_TYPE": 0, "CLASSIFICATION_TYPE": "U", "NORAD_CAT_ID": 3133, "ELEMENT_SET_NO": 999, "REV_AT_EPOCH": 56912, "BSTAR": 0.00023775975, "MEAN_MOTION_DOT": 1.67e-06, "MEAN_MOTION_DDOT": 0}, "tle": {"line1": "1 03133U 68012A   25346.27372185  .00000167  00000+0  23776-3 0  9993", "line2": "2 03133  90.0279 273.6375 0073798 170.4689 304.4346 13.51565481569127"}}, "geometry": {"type": "Point", "coordinates": [93.65993342065698, 36.34093184862993]}}, {"type": "Feature", "properties": {"norad_id": 4507, "name": "NNSS 19 (TRANSIT 19)", "group": "nnss", "lat": 64.82984734954515, "lon": 54.545374864138644, "alt_km": 1188.1057342946933, "timestamp": "2025-12-12T22:42:12.814223+00:00", "meta": {"OBJECT_NAME": "NNSS 19 (TRANSIT 19)", "OBJECT_ID": "1970-067A", "EPOCH": "2025-12-12T06:07:57.878400", "MEAN_MOTION": 13.51314917, "ECCENTRICITY": 0.01705737, "INCLINATION": 90.0054, "RA_OF_ASC_NODE": 234.5335, "ARG_OF_PERICENTER": 294.7974, "MEAN_ANOMALY": 63.5517, "EPHEMERIS_TYPE": 0, "CLASSIFICATION_TYPE": "U", "NORAD_CAT_ID": 4507, "ELEMENT_SET_NO": 999, "REV_AT_EPOCH": 72215, "BSTAR": 0.00022680025, "MEAN_MOTION_DOT": 1.69e-06, "MEAN_MOTION_DDOT": 0}, "tle": {"line1": "1 04507U 70067A   25346.25553100  .00000169  00000+0  22680-3 0  9993", "line2": "2 04507  90.0054 234.5335 0170573 294.7974  63.5517 13.51314917722155"}}, "geometry": {"type": "Point", "coordinates": [54.545374864138644, 64.82984734954515]}}, {"type": "Feature", "properties": {"norad_id": 6909, "name": "NNSS 20 (TRANSIT 20)", "group": "nnss", "lat": -24.341732570467858, "lon": 75.11610275124002, "alt_km": 1067.5993276771806, "timestamp": "2025-12-12T22:42:12.814234+00:00", "meta": {"OBJECT_NAME": "NNSS 20 (TRANSIT 20)", "OBJECT_ID": "1973-081A", "EPOCH": "2025-12-12T05:58:00.664320", "MEAN_MOTION": 13.71433819, "ECCENTRICITY": 0.01566294, "INCLINATION": 89.8562, "RA_OF_ASC_NODE": 255.0615, "ARG_OF_PERICENTER": 79.7701, "MEAN_ANOMALY": 282.1083, "EPHEMERIS_TYPE": 0, "CLASSIFICATION_TYPE": "U", "NORAD_CAT_ID": 6909, "ELEMENT_SET_NO": 999, "REV_AT_EPOCH": 80354, "BSTAR": 0.00032807445, "MEAN_MOTION_DOT": 3.34e-06, "MEAN_MOTION_DDOT": 0}, "tle": {"line1": "1 06909U 73081A   25346.24861880  .00000334  00000+0  32807-3 0  9992", "line2": "2 06909  89.8562 255.0615 0156629  79.7701 282.1083 13.71433819803542"}}, "geometry": {"type": "Point", "coordinates": [75.11610275124002, -24.341732570467858]}}, {"type": "Feature", "properties": {"norad_id": 10457, "name": "TRANSAT", "group": "nnss", "lat": 61.78835379526883, "lon": -102.06668769274333, "alt_km": 1063.9328576463213, "timestamp": "2025-12-12T22:42:12.814245+00:00", "meta": {"OBJECT_NAME": "TRANSAT", "OBJECT_ID": "1977-106A", "EPOCH": "2025-12-12T06:21:52.302816", "MEAN_MOTION": 13.48943521, "ECCENTRICITY": 0.00253535, "INCLINATION": 89.6481, "RA_OF_ASC_NODE": 78.6138, "ARG_OF_PERICENTER": 190.8432, "MEAN_ANOMALY": 223.4901, "EPHEMERIS_TYPE": 0, "CLASSIFICATION_TYPE": "U", "NORAD_CAT_ID": 10457, "ELEMENT_SET_NO": 999, "REV_AT_EPOCH": 36737, "BSTAR": 0.0001664154, "MEAN_MOTION_DOT": 1.15e-06, "MEAN_MOTION_DDOT": 0}, "tle": {"line1": "1 10457U 77106A   25346.26518869  .00000115  00000+0  16642-3 0  9991", "line2": "2 10457  89.6481  78.6138 0025353 190.8432 223.4901 13.48943521367370"}}, "geometry": {"type": "Point", "coordinates": [-102.06668769274333, 61.78835379526883]}}, {"type": "Feature", "properties": {"norad_id": 12458, "name": "NOVA 1", "group": "nnss", "lat": 0.6453735147025792, "lon": 91.38379018942653, "alt_km": 1177.6394712427636, "timestamp": "2025-12-12T22:42:12.814255+00:00", "meta": {"OBJECT_NAME": "NOVA 1", "OBJECT_ID": "1981-044A", "EPOCH": "2025-12-12T06:41:32.980416", "MEAN_MOTION": 13.23278507, "ECCENTRICITY": 0.00158964, "INCLINATION": 89.8524, "RA_OF_ASC_NODE": 91.3916, "ARG_OF_PERICENTER": 105.1318, "MEAN_ANOMALY": 319.5804, "EPHEMERIS_TYPE": 0, "CLASSIFICATION_TYPE": "U", "NORAD_CAT_ID": 12458, "ELEMENT_SET_NO": 999, "REV_AT_EPOCH": 15180, "BSTAR": 0.00019758085, "MEAN_MOTION_DOT": 9.3e-07, "MEAN_MOTION_DDOT": 0}, "tle": {"line1": "1 12458U 81044A   25346.27885394  .00000093  00000+0  19758-3 0  9997", "line2": "2 12458  89.8524  91.3916 0015896 105.1318 319.5804 13.23278507151808"}}, "geometry": {"type": "Point", "coordinates": [91.38379018942653, 0.6453735147025792]}}, {"type": "Feature", "properties": {"norad_id": 15362, "name": "NOVA 3", "group": "nnss", "lat": -53.17275695582609, "lon": -99.62626712366178, "alt_km": 1183.4092044123126, "timestamp": "2025-12-12T22:42:12.814266+00:00", "meta": {"OBJECT_NAME": "NOVA 3", "OBJECT_ID": "1984-110A", "EPOCH": "2025-12-12T07:18:06.499296", "MEAN_MOTION": 13.23044516, "ECCENTRICITY": 0.00305194, "INCLINATION": 90.1223, "RA_OF_ASC_NODE": 80.5296, "ARG_OF_PERICENTER": 333.1648, "MEAN_ANOMALY": 85.4695, "EPHEMERIS_TYPE": 0, "CLASSIFICATION_TYPE": "U", "NORAD_CAT_ID": 15362, "ELEMENT_SET_NO": 999, "REV_AT_EPOCH": 98693, "BSTAR": 0.00023973967, "MEAN_MOTION_DOT": 1.09e-06, "MEAN_MOTION_DDOT": 0}, "tle": {"line1": "1 15362U 84110A   25346.30424189  .00000109  00000+0  23974-3 0  9999", "line2": "2 15362  90.1223  80.5296 0030519 333.1648  85.4695 13.23044516986933"}}, "geometry": {"type": "Point", "coordinates": [-99.62626712366178, -53.17275695582609]}}, {"type": "Feature", "properties": {"norad_id": 15935, "name": "OSCAR 30", "group": "nnss", "lat": -37.88472470935961, "lon": 99.9786963015024, "alt_km": 1194.4221494165076, "timestamp": "2025-12-12T22:42:12.814276+00:00", "meta": {"OBJECT_NAME": "OSCAR 30", "OBJECT_ID": "1985-066A", "EPOCH": "2025-12-12T06:51:19.621728", "MEAN_MOTION": 13.36078331, "ECCENTRICITY": 0.0169419, "INCLINATION": 90.1649, "RA_OF_ASC_NODE": 99.8396, "ARG_OF_PERICENTER": 85.1751, "MEAN_ANOMALY": 304.4252, "EPHEMERIS_TYPE": 0, "CLASSIFICATION_TYPE": "U", "NORAD_CAT_ID": 15935, "ELEMENT_SET_NO": 999, "REV_AT_EPOCH": 96447, "BSTAR": 0.0002486342, "MEAN_MOTION_DOT": 1.48e-06, "MEAN_MOTION_DDOT": 0}, "tle": {"line1": "1 15935U 85066A   25346.28564377  .00000148  00000+0  24863-3 0  9998", "line2": "2 15935  90.1649  99.8396 0169419  85.1751 304.4252 13.36078331964470"}}, "geometry": {"type": "Point", "coordinates": [99.9786963015024, -37.88472470935961]}}, {"type": "Feature", "properties": {"norad_id": 15936, "name": "OSCAR 24", "group": "nnss", "lat": 37.50152342601273, "lon": 92.17154183819004, "alt_km": 1041.9173558976, "timestamp": "2025-12-12T22:42:12.814287+00:00", "meta": {"OBJECT_NAME": "OSCAR 24", "OBJECT_ID": "1985-066B", "EPOCH": "2025-12-12T06:39:11.310336", "MEAN_MOTION": 13.35935715, "ECCENTRICITY": 0.01704872, "INCLINATION": 90.179, "RA_OF_ASC_NODE": 92.2972, "ARG_OF_PERICENTER": 91.632, "MEAN_ANOMALY": 333.0245, "EPHEMERIS_TYPE": 0, "CLASSIFICATION_TYPE": "U", "NORAD_CAT_ID": 15936, "ELEMENT_SET_NO": 999, "REV_AT_EPOCH": 96637, "BSTAR": 0.00020099718, "MEAN_MOTION_DOT": 1.22e-06, "MEAN_MOTION_DDOT": 0}, "tle": {"line1": "1 15936U 85066B   25346.27721424  .00000122  00000+0  20100-3 0  9998", "line2": "2 15936  90.1790  92.2972 0170487  91.6320 333.0245 13.35935715966374"}}, "geometry": {"type": "Point", "coordinates": [92.17154183819004, 37.50152342601273]}}]}